ONEWEB-0144             
1 47290U 20100AJ  22105.53905828 -.00000300  00000+0 -86901-3 0  9996
2 47290  87.8881 293.4508 0001836  82.1612 277.9725 13.12442576 64715
ONEWEB-0145             
1 47291U 20100AK  22105.58526604  .00000431  00000+0  11619-2 0  9999
2 47291  87.8812 293.4527 0001609  85.0316 275.0996 13.12441444 64916
ONEWEB-0146             
1 47292U 20100AL  22105.58065136  .00000429  00000+0  11558-2 0  9997
2 47292  87.8836 293.4858 0002637  98.9867 261.1560 13.12442900 64827
ONEWEB-0147             
1 47293U 20100AM  22105.55061804 -.00000382  00000+0 -10977-2 0  9997
2 47293  87.8817 293.4871 0001625  62.4496 297.6797 13.12441730 64716
YUANGUANG               
1 47296U 20102A   22105.51975406  .00008554  00000+0  38463-3 0  9998
2 47296  97.4280 203.5282 0006162 323.4173 134.1468 15.21347545 72799
HAISI 1                 
1 47297U 20102B   22105.51813660  .00002784  00000+0  13093-3 0  9993
2 47297  97.4262 203.5618 0004496 308.8407 147.5773 15.20400080 72787
XJY-7                   
1 47298U 20102C   22105.55699255  .00011210  00000+0  45811-3 0  9997
2 47298  97.3863 203.8616 0002484 359.1259  57.3349 15.24534373 72980
TIANQI-8                
1 47299U 20102D   22105.54785157  .00008207  00000+0  35983-3 0  9995
2 47299  97.4286 204.2487 0003433 284.3224 171.2832 15.22236594 72837
ET-SMART-RSS            
1 47300U 20102E   22105.54910418  .00014118  00000+0  57423-3 0  9999
2 47300  97.4292 205.2004 0003371 230.5862 225.6150 15.24635715 72898
YAOGAN-33               
1 47302U 20103A   22105.46286995  .00000441  00000+0  10307-3 0  9993
2 47302  98.2183 357.1384 0000922  89.1001 271.0294 14.59285365 69101
WEINA 2                 
1 47303U 20103B   22105.44583109  .00000848  00000+0  18916-3 0  9994
2 47303  98.2204 357.2551 0001369  63.2219 296.9108 14.59328587 69107
TURKSAT 5A              
1 47306U 21001A   22104.14582205  .00000156  00000+0  00000+0 0  9990
2 47306   0.0342  96.7755 0000104 311.3279 237.6096  1.00272326  4685
CAPE-3                  
1 47309U 21002A   22105.56975392  .00010957  00000+0  46570-3 0  9990
2 47309  60.6847 240.8689 0015316 251.5502 108.3920 15.23439413 68865
POLARCUBE               
1 47310U 21002B   22105.52186538  .00018168  00000+0  70988-3 0  9996
2 47310  60.6816 238.2775 0011676 253.5460 106.4346 15.25948207 68881
RADFXSAT-2 (AO-109)     
1 47311U 21002C   22105.58137373  .00009858  00000+0  41241-3 0  9992
2 47311  60.6855 238.7194 0011867 242.7035 117.2844 15.24115836 68870
2021-002D               
1 47312U 21002D   22105.59388609  .00426672  00000+0  45399-2 0  9998
2 47312  60.6720 220.1584 0011743 327.5700  32.4683 15.62225573 69180
PROMETHEUS 2-11         
1 47313U 21002E   22105.53156682  .00019867  00000+0  73120-3 0  9995
2 47313  60.6843 234.9456 0012861 233.3702 126.6205 15.27868550 68933
MITEE-1                 
1 47314U 21002F   22105.54817641  .00018114  00000+0  66976-3 0  9991
2 47314  60.6841 233.8704 0012354 222.4807 137.5328 15.27774947 68975
2021-002G               
1 47315U 21002G   22105.55775959  .00012230  00000+0  47905-3 0  9992
2 47315  60.6850 234.4970 0012251 216.0361 143.9903 15.26135425 68968
2021-002J               
1 47317U 21002J   22105.57078925  .00009658  00000+0  41417-3 0  9997
2 47317  60.6845 240.8640 0015306 250.7053 109.2379 15.23255440 68831
2021-002K               
1 47318U 21002K   22105.56486052  .00009365  00000+0  40204-3 0  9999
2 47318  60.6848 240.8340 0015263 250.1956 109.7485 15.23251785 68831
CP12 (EXOCUBE 2)        
1 47319U 21002L   22105.56248067  .00009173  00000+0  38919-3 0  9999
2 47319  60.6851 239.7072 0012488 247.9083 112.0679 15.23703437 68823
TIANTONG-1 3            
1 47321U 21003A   22105.59113515 -.00000160  00000+0  00000+0 0  9999
2 47321   4.5682 308.3425 0003704  78.7288 110.9838  1.00273585  4693
PROMETHEUS 2-8          
1 47345U 21002N   22105.52761943  .00020369  00000+0  74785-3 0  9998
2 47345  60.6838 234.9202 0012780 233.5235 126.4678 15.27935479 68672
GMS-T                   
1 47346U 21004A   22105.60830987 -.00000016  00000+0 -64200-4 0  9996
2 47346  90.0268 230.4250 0001674 195.2889 164.8206 13.16600903 59243
STARLINK-1952           
1 47349U 21005A   22105.55399277 -.00275519  00000+0 -17023-2 0  9997
2 47349  53.0366 228.9153 0002308  62.0795 298.0458 15.77139225 69872
STARLINK-2011           
1 47350U 21005B   22105.34973372 -.00000086  00000+0  13157-4 0  9990
2 47350  53.0570 335.7284 0001512  61.0133 299.1007 15.06401227 68365
STARLINK-2017           
1 47351U 21005C   22105.51190802  .00002434  00000+0  18221-3 0  9993
2 47351  53.0540 294.9894 0001377  78.5719 281.5424 15.06407476 68942
STARLINK-2034           
1 47352U 21005D   22105.33130286  .00007835  00000+0  54406-3 0  9999
2 47352  53.0564 335.8195 0001903  60.8373 299.2806 15.06415853 68356
STARLINK-2045           
1 47353U 21005E   22105.48564971  .00002436  00000+0  18237-3 0  9992
2 47353  53.0548 280.1207 0001655  58.6332 301.4819 15.06407851 69157
STARLINK-2046           
1 47354U 21005F   22105.56489258 -.00000573  00000+0 -19592-4 0  9994
2 47354  53.0547 299.7637 0001523  61.7714 298.3428 15.06403884 68884
STARLINK-2047           
1 47355U 21005G   22105.52020350  .00001332  00000+0  10825-3 0  9996
2 47355  53.0452 284.9889 0001435  58.7063 301.4066 15.06407474 69086
STARLINK-2049           
1 47356U 21005H   22105.56628146  .00006942  00000+0  48420-3 0  9992
2 47356  53.0525 304.7696 0001563  65.4431 294.6721 15.06422711 68813
STARLINK-2050           
1 47357U 21005J   22105.37553005  .00001330  00000+0  10819-3 0  9990
2 47357  53.0558 335.6063 0001430  76.5337 283.5811 15.06395440 68367
STARLINK-2055           
1 47358U 21005K   22105.51099410  .00001060  00000+0  90049-4 0  9996
2 47358  53.0552 305.0111 0001576  72.8895 287.2267 15.06404873 68802
STARLINK-2069           
1 47359U 21005L   22105.32254774  .00004128  00000+0  29582-3 0  9993
2 47359  53.0545 330.8476 0001396  72.5127 287.6015 15.06405141 68422
STARLINK-2070           
1 47360U 21005M   22105.52803436  .00000400  00000+0  45765-4 0  9993
2 47360  53.0548 299.9405 0001722  59.0679 301.0479 15.06405608 68882
STARLINK-2071           
1 47361U 21005N   22105.58470964  .00001831  00000+0  14173-3 0  9993
2 47361  53.0557 304.6750 0001620  71.8639 288.2527 15.06411182 68812
STARLINK-2076           
1 47362U 21005P   22105.36447320  .00005613  00000+0  39524-3 0  9999
2 47362  53.0543 335.6655 0001480  67.2107 292.9039 15.06416306 68362
STARLINK-2077           
1 47363U 21005Q   22105.36816704  .00002983  00000+0  21900-3 0  9992
2 47363  53.0551 335.6366 0001417  78.7858 281.3290 15.06412028 68369
STARLINK-2080           
1 47365U 21005S   22105.51122924  .00007325  00000+0  48532-4 0  9991
2 47365  53.0339 144.1210 0007925 282.0445  77.9686 15.76804184 71051
STARLINK-2081           
1 47366U 21005T   22105.32763024  .00001299  00000+0  10612-3 0  9994
2 47366  53.0559 335.8354 0001835  64.8818 295.2361 15.06396382 68351
STARLINK-2082           
1 47367U 21005U   22105.35341940  .00001539  00000+0  12220-3 0  9991
2 47367  53.0532 335.7260 0001812  66.3573 293.7606 15.06405306 68361
STARLINK-2084           
1 47368U 21005V   22105.34604273  .00008627  00000+0  59743-3 0  9998
2 47368  53.0545 335.7401 0001467  73.0822 287.0327 15.06393319 68367
STARLINK-2085           
1 47369U 21005W   22105.28523835  .00002736  00000+0  20240-3 0  9991
2 47369  53.0531 316.0317 0001792  62.9494 297.1678 15.06415348 68632
STARLINK-2086           
1 47370U 21005X   22105.50823253  .00005383  00000+0  37979-3 0  9993
2 47370  53.0531 295.0242 0002194  37.0970 323.0170 15.06419241 68953
STARLINK-2088           
1 47371U 21005Y   22105.36079266  .00002935  00000+0  21575-3 0  9990
2 47371  53.0555 335.6820 0001578  68.4873 291.6284 15.06413026 68364
STARLINK-2089           
1 47372U 21005Z   22105.32529010  .00009859  00000+0  67942-3 0  9994
2 47372  53.0554 330.8317 0001366  80.1635 279.9508 15.06421587 68420
STARLINK-2092           
1 47373U 21005AA  22105.35710191  .00009436  00000+0  65115-3 0  9991
2 47373  53.0543 335.6867 0001527  65.4484 294.6664 15.06419497 68366
STARLINK-2093           
1 47374U 21005AB  22105.37827574 -.00000241  00000+0  26983-5 0  9996
2 47374  53.0493 335.6098 0001665  63.7463 296.3697 15.06405089 68365
STARLINK-2094           
1 47375U 21005AC  22105.05117642  .00000684  00000+0  64776-4 0  9991
2 47375  53.0552 337.0825 0001561  58.4267 301.6874 15.06404788 68311
STARLINK-2096           
1 47376U 21005AD  22105.05486855  .00001440  00000+0  11555-3 0  9994
2 47376  53.0550 337.0575 0001480  66.1954 293.9190 15.06392639 68316
STARLINK-2097           
1 47377U 21005AE  22105.37184615  .00001332  00000+0  10825-3 0  9998
2 47377  53.0555 335.6409 0001419  81.8028 278.3122 15.06406159 68360
STARLINK-2098           
1 47378U 21005AF  22105.56353506  .00004229  00000+0  30271-3 0  9992
2 47378  53.0538 294.7752 0001395  64.7054 295.4079 15.06393887 68959
STARLINK-2099           
1 47379U 21005AG  22105.50454257  .00000964  00000+0  83623-4 0  9994
2 47379  53.0559 295.0331 0001416  63.9774 296.1361 15.06401941 68946
STARLINK-2100           
1 47380U 21005AH  22105.26772038 -.00001134  00000+0 -57222-4 0  9997
2 47380  53.0524 306.0965 0001644  61.9582 298.1573 15.06401204 68774
STARLINK-2101           
1 47381U 21005AJ  22105.27554384  .00013490  00000+0  92201-3 0  9992
2 47381  53.0530 311.0654 0001607  73.8099 286.3066 15.06431609 68708
STARLINK-2102           
1 47382U 21005AK  22105.26035789 -.00000467  00000+0 -12441-4 0  9996
2 47382  53.0557 306.1304 0001590  60.1663 299.9484 15.06400385 68769
STARLINK-2103           
1 47383U 21005AL  22105.54414673  .00002243  00000+0  16940-3 0  9990
2 47383  53.0555 294.8618 0001680  59.0984 301.0170 15.06407843 68956
